NORAD_CAT_ID,OBJECT_NAME,OBJECT_TYPE,EPOCH,MEAN_MOTION,ECCENTRICITY,INCLINATION,RA_OF_ASC_NODE,ARG_OF_PERICENTER,MEAN_ANOMALY,BSTAR,MEAN_MOTION_DOT,MEAN_MOTION_DDOT,TLE_LINE0,TLE_LINE1,TLE_LINE2,SEMIMAJOR_AXIS,PERIOD,APOGEE,PERIGEE,DECAYED
55751.0,STARLINK-5577,PAYLOAD,2024-06-27 22:16:56,14.98325329,0.0002972,70.0001,7.1839,267.0256,93.0562,7.4056e-07,-8.4e-07,0.0,0 STARLINK-5577,1 55751U 23028L   24179.92843258 -.00000084  00000-0  74056-6 0  9993,2 55751  70.0001   7.1839 0002972 267.0256  93.0562 14.98325329 73202,6950.207,96.107,574.138,570.007,0.0
55751.0,STARLINK-5577,PAYLOAD,2024-06-28 12:42:08,14.98330388,0.0003128,69.9997,5.6693,267.41,92.6701,0.00021714,2.499e-05,0.0,0 STARLINK-5577,1 55751U 23028L   24180.52926224  .00002499  00000-0  21714-3 0  9997,2 55751  69.9997   5.6693 0003128 267.4100  92.6701 14.98330388 73290,6950.192,96.107,574.231,569.883,0.0
55751.0,STARLINK-5577,PAYLOAD,2024-06-28 14:18:16,14.98331707,0.0003114,69.9999,5.5009,267.2825,92.7978,0.00023041,2.657e-05,0.0,0 STARLINK-5577,1 55751U 23028L   24180.59602156  .00002657  00000-0  23041-3 0  9990,2 55751  69.9999   5.5009 0003114 267.2825  92.7978 14.98331707 73304,6950.188,96.107,574.217,569.888,0.0
55751.0,STARLINK-5577,PAYLOAD,2024-06-28 20:42:48,14.98339978,0.000306,69.9997,4.8274,266.8538,93.2271,0.00033142,3.865e-05,0.0,0 STARLINK-5577,1 55751U 23028L   24180.86305606  .00003865  00000-0  33142-3 0  9995,2 55751  69.9997   4.8274 0003060 266.8538  93.2271 14.98339978 73348,6950.162,96.106,574.154,569.9,0.0
55751.0,STARLINK-5577,PAYLOAD,2024-06-28 22:18:55,14.98342341,0.0003064,69.9997,4.6591,266.8716,93.2092,0.00037197,4.349e-05,0.0,0 STARLINK-5577,1 55751U 23028L   24180.92981471  .00004349  00000-0  37197-3 0  9994,2 55751  69.9997   4.6591 0003064 266.8716  93.2092 14.98342341 73350,6950.155,96.106,574.149,569.89,0.0
55751.0,STARLINK-5577,PAYLOAD,2024-06-29 12:44:09,14.98330685,0.0002659,70.0044,3.1452,255.2427,104.8438,0.00014379,1.623e-05,0.0,0 STARLINK-5577,1 55751U 23028L   24181.53066759  .00001623  00000-0  14379-3 0  9994,2 55751  70.0044   3.1452 0002659 255.2427 104.8438 14.98330685 73447,6950.191,96.107,573.904,570.208,0.0
55751.0,STARLINK-5577,PAYLOAD,2024-06-29 14:20:17,14.9832768,0.0002989,70.0012,2.9759,267.9663,92.1154,0.00011623,1.294e-05,0.0,0 STARLINK-5577,1 55751U 23028L   24181.59743014  .00001294  00000-0  11623-3 0  9999,2 55751  70.0012   2.9759 0002989 267.9663  92.1154 14.98327680 73453,6950.2,96.107,574.142,569.988,0.0
55751.0,STARLINK-5577,PAYLOAD,2024-06-29 22:20:57,14.98361691,0.0003166,70.0019,2.1343,269.9389,90.1407,0.0008635,0.00010234,0.0,0 STARLINK-5577,1 55751U 23028L   24181.93121542  .00010234  00000-0  86350-3 0  9996,2 55751  70.0019   2.1343 0003166 269.9389  90.1407 14.98361691 73501,6950.095,96.105,574.16,569.759,0.0
55751.0,STARLINK-5577,PAYLOAD,2024-06-30 04:45:29,14.9835141,0.0003422,70.0018,1.461,268.8329,91.2438,0.00055258,6.51e-05,0.0,0 STARLINK-5577,1 55751U 23028L   24182.19825602  .00006510  00000-0  55258-3 0  9998,2 55751  70.0018   1.4610 0003422 268.8329  91.2438 14.98351410 73544,6950.127,96.106,574.37,569.613,0.0
55751.0,STARLINK-5577,PAYLOAD,2024-06-30 14:22:18,14.98341141,0.0002764,70.0032,0.4553,253.7642,106.3213,0.00031266,3.641e-05,0.0,0 STARLINK-5577,1 55751U 23028L   24182.59882102  .00003641  00000-0  31266-3 0  9995,2 55751  70.0032   0.4553 0002764 253.7642 106.3213 14.98341141 73600,6950.158,96.106,573.944,570.102,0.0
55751.0,STARLINK-5577,PAYLOAD,2024-06-30 20:46:50,14.98332136,0.0003124,70.0032,359.7838,243.5459,116.538,3.5025e-07,-8.9e-07,0.0,0 STARLINK-5577,1 55751U 23028L   24182.86586329 -.00000089  00000-0  35025-6 0  9991,2 55751  70.0032 359.7838 0003124 243.5459 116.5380 14.98332136 73646,6950.186,96.107,574.223,569.88,0.0
55751.0,STARLINK-5577,PAYLOAD,2024-06-30 22:22:58,14.98331277,0.0002957,70.0022,359.6136,251.7953,108.2884,-6.9877e-05,-9.27e-06,0.0,0 STARLINK-5577,1 55751U 23028L   24182.93262367 -.00000927  00000-0 -69877-4 0  9994,2 55751  70.0022 359.6136 0002957 251.7953 108.2884 14.98331277 73651,6950.189,96.107,574.109,569.999,0.0
55751.0,STARLINK-5577,PAYLOAD,2024-07-01 14:24:19,14.98329895,0.0003102,70.0014,357.9265,267.612,92.4684,0.00016738,1.905e-05,0.0,0 STARLINK-5577,1 55751U 23028L   24183.60022569  .00001905  00000-0  16738-3 0  9999,2 55751  70.0014 357.9265 0003102 267.6120  92.4684 14.98329895 73757,6950.193,96.107,574.214,569.902,0.0
55751.0,STARLINK-5577,PAYLOAD,2024-07-01 20:48:51,14.98333675,0.0003102,70.0015,357.2533,268.0963,91.9841,0.0002025,2.324e-05,0.0,0 STARLINK-5577,1 55751U 23028L   24183.86726410  .00002324  00000-0  20250-3 0  9993,2 55751  70.0015 357.2533 0003102 268.0963  91.9841 14.98333675 73793,6950.182,96.107,574.202,569.891,0.0
55751.0,STARLINK-5577,PAYLOAD,2024-07-02 14:26:20,14.98329199,0.0003136,70.0017,355.402,266.7919,93.2881,0.00016189,1.839e-05,0.0,0 STARLINK-5577,1 55751U 23028L   24184.60162590  .00001839  00000-0  16189-3 0  9995,2 55751  70.0017 355.4020 0003136 266.7919  93.2881 14.98329199 73907,6950.195,96.107,574.24,569.881,0.0
55751.0,STARLINK-5577,PAYLOAD,2024-07-02 20:50:52,14.98332695,0.000306,70.0016,354.7285,264.1869,95.8941,0.00019564,2.242e-05,0.0,0 STARLINK-5577,1 55751U 23028L   24184.86866417  .00002242  00000-0  19564-3 0  9991,2 55751  70.0016 354.7285 0003060 264.1869  95.8941 14.98332695 73947,6950.185,96.107,574.176,569.923,0.0
55751.0,STARLINK-5577,PAYLOAD,2024-07-03 20:52:53,14.98339979,0.0003259,70.0006,352.204,267.5693,92.5093,-5.8541e-05,-7.92e-06,0.0,0 STARLINK-5577,1 55751U 23028L   24185.87006153 -.00000792  00000-0 -58541-4 0  9995,2 55751  70.0006 352.2040 0003259 267.5693  92.5093 14.98339979 74091,6950.162,96.106,574.292,569.762,0.0
55751.0,STARLINK-5577,PAYLOAD,2024-07-04 12:54:14,14.9832928,0.0003132,70.0002,350.5198,269.3951,90.6849,9.1682e-05,1.001e-05,0.0,0 STARLINK-5577,1 55751U 23028L   24186.53766582  .00001001  00000-0  91682-4 0  9993,2 55751  70.0002 350.5198 0003132 269.3951  90.6849 14.98329280 74192,6950.195,96.107,574.237,569.883,0.0
55751.0,STARLINK-5577,PAYLOAD,2024-07-04 14:30:22,14.98329278,0.0003137,70.0002,350.3515,269.4037,90.6763,9.0374e-05,9.85e-06,0.0,0 STARLINK-5577,1 55751U 23028L   24186.60442593  .00000985  00000-0  90374-4 0  9991,2 55751  70.0002 350.3515 0003137 269.4037  90.6763 14.98329278 74208,6950.195,96.107,574.24,569.88,0.0
55751.0,STARLINK-5577,PAYLOAD,2024-07-04 20:54:54,14.98335443,0.0003149,70.0003,349.678,269.2774,90.8024,0.00010144,1.118e-05,0.0,0 STARLINK-5577,1 55751U 23028L   24186.87146160  .00001118  00000-0  10144-3 0  9996,2 55751  70.0003 349.6780 0003149 269.2774  90.8024 14.98335443 74240,6950.176,96.107,574.23,569.852,0.0
55751.0,STARLINK-5577,PAYLOAD,2024-07-05 12:56:14,14.98333383,0.000311,70.0004,347.9947,269.711,90.3693,0.00010424,1.151e-05,0.0,0 STARLINK-5577,1 55751U 23028L   24187.53906218  .00001151  00000-0  10424-3 0  9996,2 55751  70.0004 347.9947 0003110 269.7110  90.3693 14.98333383 74343,6950.182,96.107,574.209,569.886,0.0
55751.0,STARLINK-5577,PAYLOAD,2024-07-05 14:32:23,14.98333446,0.0003113,70.0005,347.8263,269.728,90.3523,0.00010265,1.132e-05,0.0,0 STARLINK-5577,1 55751U 23028L   24187.60582205  .00001132  00000-0  10265-3 0  9992,2 55751  70.0005 347.8263 0003113 269.7280  90.3523 14.98333446 74358,6950.182,96.107,574.211,569.884,0.0
55751.0,STARLINK-5577,PAYLOAD,2024-07-05 20:56:54,14.98338612,0.0003107,70.0005,347.1532,270.0896,89.9907,0.0001531,1.735e-05,0.0,0 STARLINK-5577,1 55751U 23028L   24187.87285736  .00001735  00000-0  15310-3 0  9995,2 55751  70.0005 347.1532 0003107 270.0896  89.9907 14.98338612 74395,6950.166,96.106,574.191,569.872,0.0
55751.0,STARLINK-5577,PAYLOAD,2024-07-06 12:58:16,14.98329267,0.0003014,70.0007,345.4701,270.2282,89.8531,1.8605e-05,1.29e-06,0.0,0 STARLINK-5577,1 55751U 23028L   24188.54046451  .00000129  00000-0  18605-4 0  9996,2 55751  70.0007 345.4701 0003014 270.2282  89.8531 14.98329267 74493,6950.195,96.107,574.155,569.965,0.0
55751.0,STARLINK-5577,PAYLOAD,2024-07-06 14:34:24,14.98329135,0.0003017,70.0007,345.3017,270.2384,89.843,1.4809e-05,8.4e-07,0.0,0 STARLINK-5577,1 55751U 23028L   24188.60722457  .00000084  00000-0  14809-4 0  9992,2 55751  70.0007 345.3017 0003017 270.2384  89.8430 14.98329135 74502,6950.196,96.107,574.157,569.964,0.0
55751.0,STARLINK-5577,PAYLOAD,2024-07-06 20:58:56,14.98330857,0.0002982,70.0009,344.629,268.0143,92.0675,4.3233e-05,4.23e-06,0.0,0 STARLINK-5577,1 55751U 23028L   24188.87426268  .00000423  00000-0  43233-4 0  9992,2 55751  70.0009 344.6290 0002982 268.0143  92.0675 14.98330857 74541,6950.19,96.107,574.128,569.983,0.0
55751.0,STARLINK-5577,PAYLOAD,2024-07-07 13:00:16,14.98331363,0.0003007,70.0009,342.9456,268.2029,91.8786,-1.8709e-06,-1.15e-06,0.0,0 STARLINK-5577,1 55751U 23028L   24189.54186295 -.00000115  00000-0 -18709-5 0  9991,2 55751  70.0009 342.9456 0003007 268.2029  91.8786 14.98331363 74644,6950.189,96.107,574.144,569.964,0.0
55751.0,STARLINK-5577,PAYLOAD,2024-07-08 13:02:17,14.98327697,0.0003068,70.0008,340.421,270.3757,89.705,4.9529e-05,4.98e-06,0.0,0 STARLINK-5577,1 55751U 23028L   24190.54326359  .00000498  00000-0  49529-4 0  9995,2 55751  70.0008 340.4210 0003068 270.3757  89.7050 14.98327697 74794,6950.2,96.107,574.197,569.933,0.0
55751.0,STARLINK-5577,PAYLOAD,2024-07-08 14:38:26,14.98327942,0.000306,70.0009,340.2527,270.4777,89.6031,4.9947e-05,5.03e-06,0.0,0 STARLINK-5577,1 55751U 23028L   24190.61002354  .00000503  00000-0  49947-4 0  9990,2 55751  70.0009 340.2527 0003060 270.4777  89.6031 14.98327942 74802,6950.199,96.107,574.191,569.937,0.0
55751.0,STARLINK-5577,PAYLOAD,2024-07-08 19:26:49,14.98331303,0.0003049,70.001,339.7478,270.3574,89.7236,7.9592e-05,8.57e-06,0.0,0 STARLINK-5577,1 55751U 23028L   24190.81030089  .00000857  00000-0  79592-4 0  9999,2 55751  70.0010 339.7478 0003049 270.3574  89.7236 14.98331303 74830,6950.189,96.107,574.173,569.935,0.0
